{
    "links": {
        "self": "http://www.neowsapp.com/rest/v1/neo/3653324?api_key=iIulBulltgU6a56xZRHN4H3l9WmuAYTsLGpBGhQ2"
    },
    "id": "3653324",
    "neo_reference_id": "3653324",
    "name": "(2013 UJ9)",
    "designation": "2013 UJ9",
    "nasa_jpl_url": "http://ssd.jpl.nasa.gov/sbdb.cgi?sstr=3653324",
    "absolute_magnitude_h": 26.5,
    "estimated_diameter": {
        "kilometers": {
            "estimated_diameter_min": 0.0133215567,
            "estimated_diameter_max": 0.0297879063
        },
        "meters": {
            "estimated_diameter_min": 13.3215566698,
            "estimated_diameter_max": 29.7879062798
        },
        "miles": {
            "estimated_diameter_min": 0.008277629,
            "estimated_diameter_max": 0.0185093411
        },
        "feet": {
            "estimated_diameter_min": 43.7058959846,
            "estimated_diameter_max": 97.7293544391
        }
    },
    "is_potentially_hazardous_asteroid": false,
    "close_approach_data": [
        {
            "close_approach_date": "2013-11-01",
            "close_approach_date_full": "2013-Nov-01 08:02",
            "epoch_date_close_approach": 1383292920000,
            "relative_velocity": {
                "kilometers_per_second": "9.2829402751",
                "kilometers_per_hour": "33418.584990391",
                "miles_per_hour": "20765.0091013904"
            },
            "miss_distance": {
                "astronomical": "0.0125900496",
                "lunar": "4.8975292944",
                "kilometers": "1883444.603354352",
                "miles": "1170318.2081479776"
            },
            "orbiting_body": "Earth"
        },
        {
            "close_approach_date": "2067-09-27",
            "close_approach_date_full": "2067-Sep-27 18:23",
            "epoch_date_close_approach": 3084373380000,
            "relative_velocity": {
                "kilometers_per_second": "20.2395461781",
                "kilometers_per_hour": "72862.3662411938",
                "miles_per_hour": "45273.8408458129"
            },
            "miss_distance": {
                "astronomical": "0.374045687",
                "lunar": "145.503772243",
                "kilometers": "55956438.05788669",
                "miles": "34769718.315908722"
            },
            "orbiting_body": "Earth"
        }
    ],
    "orbital_data": {
        "orbit_id": "6",
        "orbit_determination_date": "2017-04-06 08:43:55",
        "first_observation_date": "2013-10-30",
        "last_observation_date": "2013-11-03",
        "data_arc_in_days": 4,
        "observations_used": 40,
        "orbit_uncertainty": "7",
        "minimum_orbit_intersection": ".0127688",
        "jupiter_tisserand_invariant": "3.390",
        "epoch_osculation": "2459000.5",
        "eccentricity": ".5672036748198012",
        "semi_major_axis": "2.24900045089213",
        "inclination": "6.281636459611584",
        "ascending_node_longitude": "216.6126653346062",
        "orbital_period": "1231.920665624564",
        "perihelion_distance": ".9733591304747243",
        "perihelion_argument": "207.0359964796651",
        "aphelion_distance": "3.524641771309536",
        "perihelion_time": "2459084.307252803708",
        "mean_anomaly": "335.5092906132564",
        "mean_motion": ".2922266100775944",
        "equinox": "J2000",
        "orbit_class": {
            "orbit_class_type": "APO",
            "orbit_class_description": "Near-Earth asteroid orbits which cross the Earth’s orbit similar to that of 1862 Apollo",
            "orbit_class_range": "a (semi-major axis) > 1.0 AU; q (perihelion) < 1.017 AU"
        }
    },
    "is_sentry_object": false
}